NORAD_CAT_ID,OBJECT_NAME,OBJECT_TYPE,EPOCH,MEAN_MOTION,ECCENTRICITY,INCLINATION,RA_OF_ASC_NODE,ARG_OF_PERICENTER,MEAN_ANOMALY,BSTAR,MEAN_MOTION_DOT,MEAN_MOTION_DDOT,TLE_LINE0,TLE_LINE1,TLE_LINE2,SEMIMAJOR_AXIS,PERIOD,APOGEE,PERIGEE,DECAYED
53804.0,STARLINK-4729,PAYLOAD,2024-02-23 13:59:22,15.08839405,0.0001773,53.2195,3.8203,78.0787,282.0404,-1.6072e-06,-3.14e-06,0.0,0 STARLINK-4729,1 53804U 22111AH  24054.58289552 -.00000314  00000-0 -16072-5 0  9997,2 53804  53.2195   3.8203 0001773  78.0787 282.0404 15.08839405 81404,6917.882,95.438,540.974,538.521,0.0
53804.0,STARLINK-4729,PAYLOAD,2024-02-24 13:50:09,15.08842774,0.0001931,53.2184,359.3574,86.0478,274.0735,0.00013575,1.873e-05,0.0,0 STARLINK-4729,1 53804U 22111AH  24055.57649799  .00001873  00000-0  13575-3 0  9992,2 53804  53.2184 359.3574 0001931  86.0478 274.0735 15.08842774 81551,6917.872,95.437,541.073,538.401,0.0
53804.0,STARLINK-4729,PAYLOAD,2024-02-25 02:33:13,15.08854242,0.0001862,53.2198,356.976,88.1134,272.0071,0.00016404,2.325e-05,0.0,0 STARLINK-4729,1 53804U 22111AH  24056.10641049  .00002325  00000-0  16404-3 0  9999,2 53804  53.2198 356.9760 0001862  88.1134 272.0071 15.08854242 80824,6917.837,95.437,540.99,538.414,0.0
53804.0,STARLINK-4729,PAYLOAD,2024-02-25 05:43:59,15.08856781,0.0001714,53.2195,356.3804,97.0262,263.0925,0.00021287,3.103e-05,0.0,0 STARLINK-4729,1 53804U 22111AH  24056.23888781  .00003103  00000-0  21287-3 0  9999,2 53804  53.2195 356.3804 0001714  97.0262 263.0925 15.08856781 81651,6917.829,95.436,540.88,538.508,0.0
53804.0,STARLINK-4729,PAYLOAD,2024-02-25 20:02:28,15.08844308,0.0001682,53.2194,353.7051,85.9029,274.2155,0.00020542,2.983e-05,0.0,0 STARLINK-4729,1 53804U 22111AH  24056.83505482  .00002983  00000-0  20542-3 0  9997,2 53804  53.2194 353.7051 0001682  85.9029 274.2155 15.08844308 80937,6917.867,95.437,540.896,538.569,0.0
53804.0,STARLINK-4729,PAYLOAD,2024-02-25 23:13:14,15.08849416,0.0002152,53.2167,353.1092,117.0193,243.1019,0.00023709,3.488e-05,0.0,0 STARLINK-4729,1 53804U 22111AH  24056.96752718  .00003488  00000-0  23709-3 0  9996,2 53804  53.2167 353.1092 0002152 117.0193 243.1019 15.08849416 81769,6917.852,95.437,541.205,538.228,0.0
53804.0,STARLINK-4729,PAYLOAD,2024-02-26 05:34:46,15.08857575,0.0001486,53.2177,351.9216,81.9687,278.1473,0.00042495,6.485e-05,0.0,0 STARLINK-4729,1 53804U 22111AH  24057.23248820  .00006485  00000-0  42495-3 0  9994,2 53804  53.2177 351.9216 0001486  81.9687 278.1473 15.08857575 80991,6917.827,95.436,540.72,538.664,0.0
53804.0,STARLINK-4729,PAYLOAD,2024-02-26 19:53:15,15.08831875,9.26e-05,53.219,349.2452,93.8212,266.2886,-0.00010124,-1.898e-05,0.0,0 STARLINK-4729,1 53804U 22111AH  24057.82865557 -.00001898  00000-0 -10124-3 0  9990,2 53804  53.2190 349.2452 0000926  93.8212 266.2886 15.08831875 81084,6917.905,95.438,540.411,539.13,0.0
53804.0,STARLINK-4729,PAYLOAD,2024-02-27 02:14:48,15.08839825,0.0001632,53.2185,348.0575,99.993,260.1246,0.00032425,4.876e-05,0.0,0 STARLINK-4729,1 53804U 22111AH  24058.09361504  .00004876  00000-0  32425-3 0  9998,2 53804  53.2185 348.0575 0001632  99.9930 260.1246 15.08839825 81121,6917.881,95.438,540.875,538.617,0.0
53804.0,STARLINK-4729,PAYLOAD,2024-02-27 11:47:07,15.08842215,0.0001569,53.2185,346.2717,77.0301,283.0867,0.00060064,9.285e-05,0.0,0 STARLINK-4729,1 53804U 22111AH  24058.49105792  .00009285  00000-0  60064-3 0  9996,2 53804  53.2185 346.2717 0001569  77.0301 283.0867 15.08842215 81992,6917.874,95.437,540.824,538.653,0.0
53804.0,STARLINK-4729,PAYLOAD,2024-02-27 19:44:03,15.08833322,0.000167,53.2187,344.7868,102.9363,257.1815,7.803e-05,9.54e-06,0.0,0 STARLINK-4729,1 53804U 22111AH  24058.82225996  .00000954  00000-0  78030-4 0  9999,2 53804  53.2187 344.7868 0001670 102.9363 257.1815 15.08833322 81234,6917.901,95.438,540.921,538.611,0.0
53804.0,STARLINK-4729,PAYLOAD,2024-02-27 22:54:49,15.08834059,0.0001607,53.2191,344.1916,92.1918,267.9258,4.4472e-05,4.2e-06,0.0,0 STARLINK-4729,1 53804U 22111AH  24058.95473924  .00000420  00000-0  44472-4 0  9990,2 53804  53.2191 344.1916 0001607  92.1918 267.9258 15.08834059 82063,6917.899,95.438,540.875,538.652,0.0
53804.0,STARLINK-4729,PAYLOAD,2024-02-28 11:37:54,15.08839388,0.0001565,53.2188,341.8151,88.8285,271.2886,0.00014254,1.981e-05,0.0,0 STARLINK-4729,1 53804U 22111AH  24059.48465906  .00001981  00000-0  14254-3 0  9997,2 53804  53.2188 341.8151 0001565  88.8285 271.2886 15.08839388 82140,6917.882,95.438,540.83,538.665,0.0
53804.0,STARLINK-4729,PAYLOAD,2024-02-28 22:45:36,15.08836089,0.0001567,53.2188,339.7345,95.4855,264.6315,8.1337e-05,1.007e-05,0.0,0 STARLINK-4729,1 53804U 22111AH  24059.94834305  .00001007  00000-0  81337-4 0  9997,2 53804  53.2188 339.7345 0001567  95.4855 264.6315 15.08836089 82216,6917.892,95.438,540.841,538.673,0.0
53804.0,STARLINK-4729,PAYLOAD,2024-02-29 03:31:46,15.08841038,0.00016,53.219,338.8425,94.9329,265.1845,0.00017506,2.499e-05,0.0,0 STARLINK-4729,1 53804U 22111AH  24060.14706185  .00002499  00000-0  17506-3 0  9997,2 53804  53.2190 338.8425 0001600  94.9329 265.1845 15.08841038 81433,6917.877,95.437,540.849,538.635,0.0
53804.0,STARLINK-4729,PAYLOAD,2024-02-29 11:28:41,15.08839182,0.0001589,53.2189,337.3564,92.2569,267.8605,0.00010717,1.418e-05,0.0,0 STARLINK-4729,1 53804U 22111AH  24060.47826331  .00001418  00000-0  10717-3 0  9996,2 53804  53.2189 337.3564 0001589  92.2569 267.8605 15.08839182 82297,6917.883,95.438,540.847,538.649,0.0
53804.0,STARLINK-4729,PAYLOAD,2024-02-29 22:36:23,15.08843889,0.0001582,53.2191,335.2757,93.5548,266.5626,0.00019855,2.874e-05,0.0,0 STARLINK-4729,1 53804U 22111AH  24060.94194193  .00002874  00000-0  19855-3 0  9991,2 53804  53.2191 335.2757 0001582  93.5548 266.5626 15.08843889 82361,6917.869,95.437,540.828,538.639,0.0
53804.0,STARLINK-4729,PAYLOAD,2024-03-01 11:19:28,15.08840841,0.0001562,53.218,332.893,83.7329,276.3841,7.9082e-05,9.71e-06,0.0,0 STARLINK-4729,1 53804U 22111AH  24061.47186219  .00000971  00000-0  79082-4 0  9995,2 53804  53.2180 332.8930 0001562  83.7329 276.3841 15.08840841 82443,6917.878,95.438,540.823,538.662,0.0
53804.0,STARLINK-4729,PAYLOAD,2024-03-01 22:27:10,15.08842546,0.0001402,53.2174,330.8092,87.9016,272.2136,0.00015657,2.205e-05,0.0,0 STARLINK-4729,1 53804U 22111AH  24061.93554130  .00002205  00000-0  15657-3 0  9996,2 53804  53.2174 330.8092 0001402  87.9016 272.2136 15.08842546 82519,6917.873,95.437,540.707,538.768,0.0
53804.0,STARLINK-4729,PAYLOAD,2024-03-02 01:37:56,15.08847497,0.000142,53.2181,330.2149,89.2467,270.8688,0.00014041,1.948e-05,0.0,0 STARLINK-4729,1 53804U 22111AH  24062.06801894  .00001948  00000-0  14041-3 0  9992,2 53804  53.2181 330.2149 0001420  89.2467 270.8688 15.08847497 82537,6917.857,95.437,540.705,538.74,0.0
53804.0,STARLINK-4729,PAYLOAD,2024-03-02 22:17:57,15.08845565,0.0001703,53.2177,326.3542,81.6396,278.4789,0.00011737,1.581e-05,0.0,0 STARLINK-4729,1 53804U 22111AH  24062.92914086  .00001581  00000-0  11737-3 0  9997,2 53804  53.2177 326.3542 0001703  81.6396 278.4789 15.08845565 82660,6917.863,95.437,540.906,538.55,0.0
53804.0,STARLINK-4729,PAYLOAD,2024-03-03 03:04:06,15.08852343,0.0001518,53.218,325.4564,102.943,257.1732,0.00010943,1.455e-05,0.0,0 STARLINK-4729,1 53804U 22111AH  24063.12785494  .00001455  00000-0  10943-3 0  9997,2 53804  53.2180 325.4564 0001518 102.9430 257.1732 15.08852343 81885,6917.843,95.437,540.758,538.658,0.0
53804.0,STARLINK-4729,PAYLOAD,2024-03-03 11:01:02,15.08838973,0.000127,53.2179,323.9702,102.4446,257.6688,-3.0488e-05,-7.73e-06,0.0,0 STARLINK-4729,1 53804U 22111AH  24063.45906063 -.00000773  00000-0 -30488-4 0  9991,2 53804  53.2179 323.9702 0001270 102.4446 257.6688 15.08838973 81931,6917.884,95.438,540.627,538.87,0.0
53804.0,STARLINK-4729,PAYLOAD,2024-03-03 20:33:22,15.0883644,0.0001552,53.2185,322.1864,93.5417,266.5752,2.3712e-05,8.9e-07,0.0,0 STARLINK-4729,1 53804U 22111AH  24063.85650512  .00000089  00000-0  23712-4 0  9990,2 53804  53.2185 322.1864 0001552  93.5417 266.5752 15.08836440 82804,6917.891,95.438,540.83,538.683,0.0
53804.0,STARLINK-4729,PAYLOAD,2024-03-04 02:54:53,15.08848618,0.0001697,53.2185,320.9928,102.0145,258.1037,0.00013457,1.855e-05,0.0,0 STARLINK-4729,1 53804U 22111AH  24064.12145784  .00001855  00000-0  13457-3 0  9997,2 53804  53.2185 320.9928 0001697 102.0145 258.1037 15.08848618 82033,6917.854,95.437,540.893,538.545,0.0
53804.0,STARLINK-4729,PAYLOAD,2024-03-04 21:59:30,15.08862712,0.0001705,53.2185,317.4257,114.8273,245.2897,0.00041289,6.293e-05,0.0,0 STARLINK-4729,1 53804U 22111AH  24064.91632882  .00006293  00000-0  41289-3 0  9999,2 53804  53.2185 317.4257 0001705 114.8273 245.2897 15.08862712 82966,6917.811,95.436,540.855,538.496,0.0
53804.0,STARLINK-4729,PAYLOAD,2024-03-05 02:45:40,15.08870052,0.0001361,53.2168,316.5346,87.6415,272.4733,0.00071453,0.00011111,0.0,0 STARLINK-4729,1 53804U 22111AH  24065.11504743  .00011111  00000-0  71453-3 0  9997,2 53804  53.2168 316.5346 0001361  87.6415 272.4733 15.08870052 82180,6917.789,95.436,540.595,538.712,0.0
53804.0,STARLINK-4729,PAYLOAD,2024-03-05 20:14:55,15.08821787,0.0001328,53.2182,313.2642,74.3826,285.7312,-0.00058657,-9.606e-05,0.0,0 STARLINK-4729,1 53804U 22111AH  24065.84369912 -.00009606  00000-0 -58657-3 0  9993,2 53804  53.2182 313.2642 0001328  74.3826 285.7312 15.08821787 82294,6917.936,95.439,540.72,538.882,0.0
53804.0,STARLINK-4729,PAYLOAD,2024-03-05 21:50:18,15.08818307,0.0001572,53.2178,312.9663,70.2967,289.8194,-0.00051275,-8.434e-05,0.0,0 STARLINK-4729,1 53804U 22111AH  24065.90993986 -.00008434  00000-0 -51275-3 0  9991,2 53804  53.2178 312.9663 0001572  70.2967 289.8194 15.08818307 83119,6917.947,95.439,540.899,538.724,0.0
53804.0,STARLINK-4729,PAYLOAD,2024-03-06 20:05:43,15.08842403,0.0001343,53.2174,308.8073,83.3858,276.7287,0.0010413,0.00016324,0.0,0 STARLINK-4729,1 53804U 22111AH  24066.83730718  .00016324  00000-0  10413-2 0  9999,2 53804  53.2174 308.8073 0001343  83.3858 276.7287 15.08842403 82441,6917.873,95.437,540.667,538.809,0.0
